ORBCOMM-X [-]           
1 21576U 91050C   24046.92346825  .00000708  00000+0  22746-3 0  9999
2 21576  98.4049 116.0592 0003187 201.3152 158.7905 14.42367366711853
ORBCOMM FM01 [-]        
1 23545U 95017A   24047.51274528  .00011669  00000+0  16019-2 0  9993
2 23545  69.9676 196.2824 0007124 315.9125  44.1454 14.78533730540659
ORBCOMM FM02 [-]        
1 23546U 95017B   24047.51801592  .00009995  00000+0  13875-2 0  9997
2 23546  69.9691 215.5399 0008967 314.3118  45.7294 14.78108438540258
ORBCOMM FM08 [-]        
1 25112U 97084A   24046.68091552  .00004106  00000+0  12819-2 0  9994
2 25112  45.0132 180.9787 0007291 296.1504  63.8596 14.42012385370911
ORBCOMM FM10 [-]        
1 25113U 97084B   24046.68315720  .00004138  00000+0  12935-2 0  9995
2 25113  45.0145 182.7622 0005708 264.5442  95.4756 14.41939043546063
ORBCOMM FM11 [+]        
1 25114U 97084C   24046.41782355  .00003841  00000+0  12066-2 0  9994
2 25114  45.0129 184.0299 0006406 265.1580  94.8538 14.41821229370991
ORBCOMM FM12 [-]        
1 25115U 97084D   24046.72216681  .00003743  00000+0  11777-2 0  9992
2 25115  45.0138 182.2481 0005468 265.4647  94.5578 14.41799566370831
ORBCOMM FM09 [-]        
1 25116U 97084E   24046.73151197  .00003827  00000+0  12037-2 0  9997
2 25116  45.0139 182.8664 0006873 254.9272 105.0818 14.41765749371045
